QIANFAN-73              
1 63159U 25046A   25201.58619724  .00000102  00000+0  13922-3 0  9995
2 63159  88.9848 334.9737 0015292 176.3285 183.7981 13.50955642 27813
QIANFAN-74              
1 63160U 25046B   25201.64391498  .00000095  00000+0  12825-3 0  9991
2 63160  88.9848 334.8564 0002023  98.0213 262.1168 13.50959786 27880
QIANFAN-75              
1 63161U 25046C   25201.55746317  .00000099  00000+0  13423-3 0  9995
2 63161  88.9849 335.0968 0016354 179.8008 180.3152 13.50956482 27744
QIANFAN-76              
1 63162U 25046D   25201.62720666  .00000062  00000+0  77598-4 0  9997
2 63162  88.9849 335.0709 0013930 179.0497 181.0683 13.50951808 27765
QIANFAN-77              
1 63163U 25046E   25201.61526096  .00000213  00000+0  14548-3 0  9991
2 63163  88.9847 334.2681 0015458 165.7596 194.4020 13.95997160 28206
QIANFAN-78              
1 63164U 25046F   25201.89071765  .00000116  00000+0  16176-3 0  9991
2 63164  88.9848 334.9095 0015241 181.3467 178.7645 13.50955546 27878
QIANFAN-79              
1 63165U 25046G   25201.84539192  .00000121  00000+0  16882-3 0  9990
2 63165  88.9852 335.0159 0014974 179.6646 180.4517 13.50957569 27828
QIANFAN-80              
1 63166U 25046H   25201.63977211  .00000102  00000+0  13881-3 0  9991
2 63166  88.9849 334.7479 0013801 183.9384 176.1661 13.50958113 27942
